{
"type": "FeatureCollection",
"name": "1floor",
"crs": { "type": "name", "properties": { "name": "urn:ogc:def:crs:OGC:1.3:CRS84" } },
"features": [
{ "type": "Feature", "properties": { "status": "xz", "id": "1", "area": 50.0, "rooms": 5, "floor": 1 }, "geometry": { "type": "MultiPolygon", "coordinates": [ [ [ [ -4.039104003763086, 36.772973109307983 ], [ -4.039113887711489, 36.773024338099582 ], [ -4.039104003763086, 36.773023406667306 ], [ -4.03911330630276, 36.773164518527004 ], [ -4.039078421778983, 36.773154272790158 ], [ -4.039080166005173, 36.773163587096441 ], [ -4.038971442572737, 36.773148218490462 ], [ -4.038937139457691, 36.773006640884532 ], [ -4.038937139457691, 36.773005709452057 ], [ -4.038937139457691, 36.773006175168298 ], [ -4.038937139457691, 36.773005709452057 ], [ -4.038937139457691, 36.773006175168298 ], [ -4.038937720866421, 36.773006640884532 ], [ -4.038937720866421, 36.773006640884532 ], [ -4.039104003763086, 36.772973109307983 ] ] ] ] } }
]
}
