{
"type": "FeatureCollection",
"name": "balcon",
"crs": { "type": "name", "properties": { "name": "urn:ogc:def:crs:OGC:1.3:CRS84" } },
"features": [
{ "type": "Feature", "properties": { "fid": 2, "floor": 2, "id": "balcony-l3", "type": "balcon", "height": 2, "base": 1 }, "geometry": { "type": "Polygon", "coordinates": [ [ [ -4.038977023510829, 36.773148311336989 ], [ -4.03894570208469, 36.773144414447408 ], [ -4.038917398975586, 36.773002252398129 ], [ -4.038953086095496, 36.77299834277639 ], [ -4.038977023510829, 36.773148311336989 ] ] ] } },
{ "type": "Feature", "properties": { "fid": 3, "floor": 3, "id": "balcony-l2", "type": "balcon", "height": 2, "base": 1 }, "geometry": { "type": "Polygon", "coordinates": [ [ [ -4.03895308607562, 36.772998342792285 ], [ -4.038977024011023, 36.77314831409106 ], [ -4.03894570207552, 36.773144414443202 ], [ -4.038917399025901, 36.773002252398186 ], [ -4.03895308607562, 36.772998342792285 ] ] ] } }
]
}
