{
"type": "FeatureCollection",
"name": "floor5",
"crs": { "type": "name", "properties": { "name": "urn:ogc:def:crs:OGC:1.3:CRS84" } },
"features": [
{ "type": "Feature", "properties": { "id": "5", "status": "aviable", "rooms": 7, "area": 60.0, "floor": 5 }, "geometry": { "type": "MultiPolygon", "coordinates": [ [ [ [ -4.039113597007097, 36.772977999330379 ], [ -4.03912464377296, 36.773025036673673 ], [ -4.039114905176739, 36.773025153102694 ], [ -4.039120864616216, 36.773111776253288 ], [ -4.039186563802661, 36.77310735195497 ], [ -4.039189180141944, 36.773171737113394 ], [ -4.03908598009244, 36.773148451348064 ], [ -4.03908598009244, 36.773154505647732 ], [ -4.039017373862347, 36.773147752774996 ], [ -4.038951529323721, 36.773140068470788 ], [ -4.038914609869392, 36.773008387320303 ], [ -4.039030600910947, 36.772992087250579 ], [ -4.039054802049317, 36.772990224385246 ], [ -4.039113597007097, 36.772977999330379 ] ] ] ] } }
]
}
