{
"type": "FeatureCollection",
"name": "floor4",
"crs": { "type": "name", "properties": { "name": "urn:ogc:def:crs:OGC:1.3:CRS84" } },
"features": [
{ "type": "Feature", "properties": { "id": "4", "rooms": 7, "area": 70.0, "floor": 4, "status": "aviable" }, "geometry": { "type": "MultiPolygon", "coordinates": [ [ [ [ -4.039119411094389, 36.772979280050642 ], [ -4.039130748564619, 36.773028180257612 ], [ -4.039119992503119, 36.773027481683449 ], [ -4.03912784152097, 36.773115036262602 ], [ -4.039193540707426, 36.773110844822256 ], [ -4.039197901272898, 36.773175579264183 ], [ -4.039091794179728, 36.773153224930688 ], [ -4.039090922066634, 36.773159512087652 ], [ -4.038980454407991, 36.773146704915547 ], [ -4.038966427922388, 36.773099551217982 ], [ -4.038952474112874, 36.773045528180674 ], [ -4.038946369321211, 36.773005476593973 ], [ -4.038983870184277, 36.772999189424397 ], [ -4.039020789638613, 36.772996162268484 ], [ -4.039060034727869, 36.772992902254288 ], [ -4.039119411094389, 36.772979280050642 ] ] ] ] } }
]
}
