{
"type": "FeatureCollection",
"name": "FLOOR6",
"crs": { "type": "name", "properties": { "name": "urn:ogc:def:crs:OGC:1.3:CRS84" } },
"features": [
{ "type": "Feature", "properties": { "status": "aviable", "id": 6, "rooms": 4, "floor": 6, "area": 136 }, "geometry": { "type": "MultiPolygon", "coordinates": [ [ [ [ -4.03910143284625, 36.77299471782019 ], [ -4.0391152413036, 36.773033430478847 ], [ -4.039105720735638, 36.773033546907861 ], [ -4.039115204965554, 36.773113155208321 ], [ -4.03920164409166, 36.773110404575561 ], [ -4.039206004657139, 36.773169957935984 ], [ -4.039201353387294, 36.773170016150388 ], [ -4.039067847407551, 36.773149757534455 ], [ -4.039067047970546, 36.773155346118692 ], [ -4.038974167925846, 36.773145798953713 ], [ -4.038974313278029, 36.773055857615404 ], [ -4.038994662583598, 36.773054285824074 ], [ -4.038996515823924, 36.773007656000381 ], [ -4.039025041189765, 36.77300634617346 ], [ -4.03910143284625, 36.77299471782019 ] ] ] ] } }
]
}
