{
"type": "FeatureCollection",
"name": "floor3",
"crs": { "type": "name", "properties": { "name": "urn:ogc:def:crs:OGC:1.3:CRS84" } },
"features": [
{ "type": "Feature", "properties": { "id": "3", "status": "aviable", "area": 50.5, "rooms": 6, "floor": 3 }, "geometry": { "type": "MultiPolygon", "coordinates": [ [ [ [ -4.039099933902264, 36.772975703493962 ], [ -4.039109091089769, 36.773026641211317 ], [ -4.039100951367542, 36.773026408353267 ], [ -4.039109381794134, 36.773166006633033 ], [ -4.039078421779235, 36.77315727447121 ], [ -4.03907754966614, 36.773163794485477 ], [ -4.038969407642264, 36.773147727306466 ], [ -4.038938883683913, 36.77300766327717 ], [ -4.038988303426006, 36.772996020370442 ], [ -4.039048624581797, 36.772990315345488 ], [ -4.03904767979261, 36.772990431774573 ], [ -4.03904767979261, 36.772990431774573 ], [ -4.039099933902264, 36.772975703493962 ] ] ] ] } }
]
}
