{
"type": "FeatureCollection",
"name": "FLOOR1",
"crs": { "type": "name", "properties": { "name": "urn:ogc:def:crs:OGC:1.3:CRS84" } },
"features": [
{ "type": "Feature", "properties": { "id": 1, "floor": 1, "area": 158.0, "status": "aviable", "rooms": 14 }, "geometry": { "type": "MultiPolygon", "coordinates": [ [ [ [ -4.039118429967147, 36.772974884851834 ], [ -4.039128640957976, 36.773024112518321 ], [ -4.039119869862207, 36.773024170732839 ], [ -4.039129326838589, 36.773158638871578 ], [ -4.039094805695214, 36.77314984121768 ], [ -4.039094369638668, 36.773156484938205 ], [ -4.038976243736747, 36.773140883473111 ], [ -4.03894268555158, 36.773006080569687 ], [ -4.038997047267883, 36.772994408555441 ], [ -4.039067288710138, 36.772988572547661 ], [ -4.039118429967147, 36.772974884851834 ] ] ] ] } }
]
}
