{
"type": "FeatureCollection",
"name": "floor2",
"crs": { "type": "name", "properties": { "name": "urn:ogc:def:crs:OGC:1.3:CRS84" } },
"features": [
{ "type": "Feature", "properties": { "id": "2", "status": "aviable", "area": 40.0, "rooms": 7, "floor": 2 }, "geometry": { "type": "MultiPolygon", "coordinates": [ [ [ [ -4.039107564891569, 36.772976369322976 ], [ -4.039116867431241, 36.773026666680138 ], [ -4.03911788489652, 36.773167429247373 ], [ -4.039084453894572, 36.773159744945168 ], [ -4.039084453894572, 36.773165799243941 ], [ -4.03897166060105, 36.773149499207676 ], [ -4.038940555234023, 36.773008270891317 ], [ -4.038940409881841, 36.773008154462268 ], [ -4.038940264529657, 36.773008154462268 ], [ -4.038940264529657, 36.773008154462268 ], [ -4.038940264529657, 36.773008154462268 ], [ -4.039107564891569, 36.772976369322976 ] ] ] ] } }
]
}
