{
"type": "FeatureCollection",
"name": "terraces",
"crs": { "type": "name", "properties": { "name": "urn:ogc:def:crs:OGC:1.3:CRS84" } },
"features": [
{ "type": "Feature", "properties": { "fid": 4, "id": "4", "floor": 4, "type": "terrace" }, "geometry": { "type": "MultiPolygon", "coordinates": [
  [ [ [ -4.038977023510829, 36.773148311336989 ], [ -4.038928911693906, 36.773142308598672 ], [ -4.038906331644696, 36.77300317878764 ], [ -4.038953086095496, 36.77299834277639 ], [ -4.038977023510829, 36.773148311336989 ] ] ],
  [ [ [ -4.039018761180211, 36.772991814241806 ], [ -4.039026026669926, 36.773039458900236 ], [ -4.038989825865965, 36.773043671787349 ], [ -4.039009050309353, 36.773152318939118 ], [ -4.039079633564939, 36.773160974312701 ], [ -4.039103205087824, 36.77309018285607 ], [ -4.03911805381011, 36.773037210251793 ], [ -4.039018761180211, 36.772991814241806 ] ] ]
] } },
{ "type": "Feature", "properties": { "fid": 5, "id": "5", "floor": 5, "type": "terrace" }, "geometry": { "type": "Polygon", "coordinates": [ [ [ -4.039009050309353, 36.773152318939118 ], [ -4.03897702061007, 36.773148320247827 ], [ -4.038953105692699, 36.772998461420102 ], [ -4.039018761180211, 36.772991814241806 ], [ -4.039026026669926, 36.773039458900236 ], [ -4.038989825865965, 36.773043671787349 ], [ -4.039009050309353, 36.773152318939118 ] ] ] } },
{ "type": "Feature", "properties": { "fid": 6, "id": "6", "floor": 6, "type": "terrace" }, "geometry": { "type": "Polygon", "coordinates": [ [ [ -4.038999165069861, 36.773097004915414 ], [ -4.038989825863409, 36.773043671772037 ], [ -4.039026026644835, 36.77303945894392 ], [ -4.039018760523848, 36.7729918121791 ], [ -4.039066129842723, 36.772987489192381 ], [ -4.039115268568533, 36.772969209025327 ], [ -4.039127986808273, 36.773026608367154 ], [ -4.03911723081169, 36.773026841323691 ], [ -4.03911805381011, 36.773037210251793 ], [ -4.039018569221341, 36.773047992106072 ], [ -4.03901683596164, 36.773081685828018 ], [ -4.038999506591647, 36.773082839778134 ], [ -4.038999165069861, 36.773097004915414 ] ] ] } }
]
}
