{
"type": "FeatureCollection",
"name": "units",
"crs": { "type": "name", "properties": { "name": "urn:ogc:def:crs:OGC:1.3:CRS84" } },
"features": [
{
"type": "Feature",
"properties": { "id": "1", "status": "xz", "area": 50.0, "rooms": 5, "floor": 1 },
"geometry": { "type": "MultiPolygon", "coordinates": [ [ [ [ -4.039104003763086, 36.772973109307983 ], [ -4.039113887711489, 36.773024338099582 ], [ -4.039104003763086, 36.773023406667306 ], [ -4.03911330630276, 36.773164518527004 ], [ -4.039078421778983, 36.773154272790158 ], [ -4.039080166005173, 36.773163587096441 ], [ -4.038971442572737, 36.773148218490462 ], [ -4.038937139457691, 36.773006640884532 ], [ -4.038937139457691, 36.773005709452057 ], [ -4.038937139457691, 36.773006175168298 ], [ -4.038937139457691, 36.773005709452057 ], [ -4.038937139457691, 36.773006175168298 ], [ -4.038937720866421, 36.773006640884532 ], [ -4.038937720866421, 36.773006640884532 ], [ -4.039104003763086, 36.772973109307983 ] ] ] ] }
},
{
"type": "Feature",
"properties": { "id": "2", "status": "aviable", "area": 40.0, "rooms": 7, "floor": 2 },
"geometry": { "type": "MultiPolygon", "coordinates": [ [ [ [ -4.039107564891569, 36.772976369322976 ], [ -4.039116867431241, 36.773026666680138 ], [ -4.03911788489652, 36.773167429247373 ], [ -4.039084453894572, 36.773159744945168 ], [ -4.039084453894572, 36.773165799243941 ], [ -4.03897166060105, 36.773149499207676 ], [ -4.038940555234023, 36.773008270891317 ], [ -4.038940409881841, 36.773008154462268 ], [ -4.038940264529657, 36.773008154462268 ], [ -4.038940264529657, 36.773008154462268 ], [ -4.038940264529657, 36.773008154462268 ], [ -4.039107564891569, 36.772976369322976 ] ] ] ] }
},
{
"type": "Feature",
"properties": { "id": "3", "status": "aviable", "area": 50.5, "rooms": 6, "floor": 3 },
"geometry": { "type": "MultiPolygon", "coordinates": [ [ [ [ -4.039099933902264, 36.772975703493962 ], [ -4.039109091089769, 36.773026641211317 ], [ -4.039100951367542, 36.773026408353267 ], [ -4.039109381794134, 36.773166006633033 ], [ -4.039078421779235, 36.77315727447121 ], [ -4.03907754966614, 36.773163794485477 ], [ -4.038969407642264, 36.773147727306466 ], [ -4.038938883683913, 36.77300766327717 ], [ -4.038988303426006, 36.772996020370442 ], [ -4.039048624581797, 36.772990315345488 ], [ -4.03904767979261, 36.772990431774573 ], [ -4.03904767979261, 36.772990431774573 ], [ -4.039099933902264, 36.772975703493962 ] ] ] ] }
}
]
}