{
"type": "FeatureCollection",
"name": "floor2",
"crs": { "type": "name", "properties": { "name": "urn:ogc:def:crs:OGC:1.3:CRS84" } },
"features": [
{ "type": "Feature", "properties": { "status": "aviable", "id": 2, "rooms": 17, "floor": 4, "area": 200 }, "geometry": { "type": "MultiPolygon", "coordinates": [ [ [ [ -4.039115268557276, 36.772969208932629 ], [ -4.039127986873233, 36.77302655025111 ], [ -4.039117230811738, 36.773026841323677 ], [ -4.039122717856624, 36.773096902459919 ], [ -4.039123106159961, 36.773109895336212 ], [ -4.039124410323756, 36.773124833849707 ], [ -4.039125975320311, 36.773151472450415 ], [ -4.039126933069916, 36.773165828351175 ], [ -4.039093574744049, 36.773158784407372 ], [ -4.03909332037773, 36.773162801201856 ], [ -4.0389770189691, 36.773148324137814 ], [ -4.038952570329679, 36.77299849307088 ], [ -4.03906612703017, 36.772987490234513 ], [ -4.039115268557276, 36.772969208932629 ] ] ] ] } }
]
}
