{
"type": "FeatureCollection",
"name": "floor4",
"crs": { "type": "name", "properties": { "name": "urn:ogc:def:crs:OGC:1.3:CRS84" } },
"features": [
{ "type": "Feature", "properties": { "status": "aviable", "id": 2, "rooms": 17, "floor": 4, "area": 200 }, "geometry": { "type": "MultiPolygon", "coordinates": [ [ [ [ -4.039115268557276, 36.772969208932629 ], [ -4.039127986873233, 36.77302655025111 ], [ -4.039117230811738, 36.773026841323677 ], [ -4.039122717856624, 36.773096902459919 ], [ -4.039213999027186, 36.773128221833744 ], [ -4.039193649721648, 36.773164896920633 ], [ -4.039125770252456, 36.773148713313027 ], [ -4.039126933069916, 36.773165828351175 ], [ -4.039093574744049, 36.773158784407372 ], [ -4.03909332037773, 36.773162801201856 ], [ -4.03897701896895, 36.773148324137857 ], [ -4.038952570329687, 36.772998493071071 ], [ -4.03906612703017, 36.772987490234513 ], [ -4.039115268557276, 36.772969208932629 ] ] ] ] } }
]
}
