{
"type": "FeatureCollection",
"name": "floor6",
"crs": { "type": "name", "properties": { "name": "urn:ogc:def:crs:OGC:1.3:CRS84" } },
"xy_coordinate_resolution": 1e-16,
"features": [
{ "type": "Feature", "properties": { "id": 6, "floor": 6, "rooms": 12, "area": 17, "status": "aviable" }, "geometry": { "type": "MultiPolygon", "coordinates": [ [ [ [ -4.0391180538295899, 36.7730372102674892 ], [ -4.0391203416683803, 36.7730666450087682 ], [ -4.0391203419754493, 36.7730666446926335 ], [ -4.0391227177171558, 36.7730969023474756 ], [ -4.0392139990197187, 36.7731282218353641 ], [ -4.0391936497135097, 36.7731648969128386 ], [ -4.0391257702761036, 36.7731487133295474 ], [ -4.0391269327160497, 36.7731658283607956 ], [ -4.0390935753617567, 36.7731587856278921 ], [ -4.0390933203789654, 36.7731628011523028 ], [ -4.0390090529351959, 36.773152319706206 ], [ -4.0389968128459079, 36.7730831305423393 ], [ -4.0390168359609859, 36.7730816858302063 ], [ -4.0390185692211897, 36.7730479921067186 ], [ -4.0391180538295899, 36.7730372102674892 ] ] ] ] } }
]
}
